NORAD_CAT_ID,OBJECT_NAME,OBJECT_TYPE,EPOCH,MEAN_MOTION,ECCENTRICITY,INCLINATION,RA_OF_ASC_NODE,ARG_OF_PERICENTER,MEAN_ANOMALY,BSTAR,MEAN_MOTION_DOT,MEAN_MOTION_DDOT,TLE_LINE0,TLE_LINE1,TLE_LINE2,SEMIMAJOR_AXIS,PERIOD,APOGEE,PERIGEE,DECAYED
55743.0,STARLINK-5602,PAYLOAD,2024-05-31 05:39:12,14.98332163,0.0002593,70.0006,77.0894,256.9182,103.1688,5.7486e-05,5.93e-06,0.0,0 STARLINK-5602,1 55743U 23028C   24152.23556300  .00000593  00000-0  57486-4 0  9998,2 55743  70.0006  77.0894 0002593 256.9182 103.1688 14.98332163 69053,6950.186,96.107,573.853,570.249,0.0
55743.0,STARLINK-5602,PAYLOAD,2024-05-31 20:04:24,14.98338083,0.0002685,70.0002,75.574,265.7321,94.3531,0.00010423,1.151e-05,0.0,0 STARLINK-5602,1 55743U 23028C   24152.83639689  .00001151  00000-0  10423-3 0  9996,2 55743  70.0002  75.5740 0002685 265.7321  94.3531 14.98338083 69142,6950.168,96.106,573.899,570.167,0.0
55743.0,STARLINK-5602,PAYLOAD,2024-05-31 21:40:32,14.98337936,0.0002692,70.0002,75.4057,265.5369,94.5482,0.00010098,1.112e-05,0.0,0 STARLINK-5602,1 55743U 23028C   24152.90315679  .00001112  00000-0  10098-3 0  9999,2 55743  70.0002  75.4057 0002692 265.5369  94.5482 14.98337936 69154,6950.168,96.106,573.904,570.162,0.0
55743.0,STARLINK-5602,PAYLOAD,2024-06-01 12:05:45,14.9833176,0.0002474,70.0007,73.8891,275.5032,84.5845,2.6631e-05,2.25e-06,0.0,0 STARLINK-5602,1 55743U 23028C   24153.50400195  .00000225  00000-0  26631-4 0  9999,2 55743  70.0007  73.8891 0002474 275.5032  84.5845 14.98331760 69244,6950.187,96.107,573.772,570.333,0.0
55743.0,STARLINK-5602,PAYLOAD,2024-06-02 04:07:06,14.98323978,0.000276,70.0004,72.2073,266.3922,93.6921,1.4896e-05,8.5e-07,0.0,0 STARLINK-5602,1 55743U 23028C   24154.17160720  .00000085  00000-0  14896-4 0  9994,2 55743  70.0004  72.2073 0002760 266.3922  93.6921 14.98323978 69349,6950.212,96.107,573.995,570.158,0.0
55743.0,STARLINK-5602,PAYLOAD,2024-06-02 12:07:47,14.98328094,0.0002873,70.0,71.3653,268.8775,91.2055,2.6426e-05,2.22e-06,0.0,0 STARLINK-5602,1 55743U 23028C   24154.50540537  .00000222  00000-0  26426-4 0  9994,2 55743  70.0000  71.3653 0002873 268.8775  91.2055 14.98328094 69398,6950.199,96.107,574.061,570.067,0.0
55743.0,STARLINK-5602,PAYLOAD,2024-06-03 04:09:07,14.98335229,0.0002782,70.0003,69.681,265.241,94.8431,9.649e-05,1.059e-05,0.0,0 STARLINK-5602,1 55743U 23028C   24155.17300017  .00001059  00000-0  96490-4 0  9992,2 55743  70.0003  69.6810 0002782 265.2410  94.8431 14.98335229 69498,6950.177,96.107,573.975,570.108,0.0
55743.0,STARLINK-5602,PAYLOAD,2024-06-03 12:09:47,14.983375,0.0002858,70.0002,68.8397,273.8402,86.243,5.7587e-05,5.94e-06,0.0,0 STARLINK-5602,1 55743U 23028C   24155.50679943  .00000594  00000-0  57587-4 0  9993,2 55743  70.0002  68.8397 0002858 273.8402  86.2430 14.98337500 69542,6950.17,96.107,574.021,570.048,0.0
55743.0,STARLINK-5602,PAYLOAD,2024-06-04 04:11:07,14.98340122,0.0002982,70.0001,67.1568,269.8202,90.2615,0.00028594,3.321e-05,0.0,0 STARLINK-5602,1 55743U 23028C   24156.17439437  .00003321  00000-0  28594-3 0  9995,2 55743  70.0001  67.1568 0002982 269.8202  90.2615 14.98340122 69649,6950.162,96.106,574.099,569.954,0.0
55743.0,STARLINK-5602,PAYLOAD,2024-06-05 04:13:08,14.98337861,0.0002818,70.0008,64.6329,264.8672,95.2165,9.3113e-05,1.018e-05,0.0,0 STARLINK-5602,1 55743U 23028C   24157.17579537  .00001018  00000-0  93113-4 0  9993,2 55743  70.0008  64.6329 0002818 264.8672  95.2165 14.98337861 69794,6950.169,96.106,573.992,570.075,0.0
55743.0,STARLINK-5602,PAYLOAD,2024-06-05 10:37:41,14.98333576,0.0002848,70.0017,63.957,271.8056,88.2776,6.5262e-05,6.86e-06,0.0,0 STARLINK-5602,1 55743U 23028C   24157.44283941  .00000686  00000-0  65262-4 0  9998,2 55743  70.0017  63.9570 0002848 271.8056  88.2776 14.98333576 69835,6950.182,96.107,574.026,570.067,0.0
55743.0,STARLINK-5602,PAYLOAD,2024-06-05 17:02:13,14.98331784,0.0002819,69.9991,63.2852,272.4662,87.6174,4.1309e-05,4e-06,0.0,0 STARLINK-5602,1 55743U 23028C   24157.70988007  .00000400  00000-0  41309-4 0  9992,2 55743  69.9991  63.2852 0002819 272.4662  87.6174 14.98331784 69875,6950.187,96.107,574.012,570.093,0.0
55743.0,STARLINK-5602,PAYLOAD,2024-06-06 10:39:42,14.98341105,0.0002604,70.002,61.4314,281.7937,78.293,-0.00012621,-1.599e-05,0.0,0 STARLINK-5602,1 55743U 23028C   24158.44423871 -.00001599  00000-0 -12621-3 0  9993,2 55743  70.0020  61.4314 0002604 281.7937  78.2930 14.98341105 69980,6950.159,96.106,573.833,570.214,0.0
55743.0,STARLINK-5602,PAYLOAD,2024-06-07 21:54:39,14.98333556,0.000238,70.0023,57.7292,281.6356,78.4536,0.00016547,1.882e-05,0.0,0 STARLINK-5602,1 55743U 23028C   24159.91295813  .00001882  00000-0  16547-3 0  9993,2 55743  70.0023  57.7292 0002380 281.6356  78.4536 14.98333556 70203,6950.182,96.107,573.701,570.393,0.0
55743.0,STARLINK-5602,PAYLOAD,2024-06-08 02:43:03,14.98335194,0.0002849,70.0012,57.2278,268.5527,91.5306,0.00015023,1.7e-05,0.0,0 STARLINK-5602,1 55743U 23028C   24160.11323533  .00001700  00000-0  15023-3 0  9995,2 55743  70.0012  57.2278 0002849 268.5527  91.5306 14.98335194 70238,6950.177,96.107,574.022,570.062,0.0
55743.0,STARLINK-5602,PAYLOAD,2024-06-08 10:43:44,14.98333411,0.0002811,70.0014,56.3861,274.5222,85.5616,0.00013375,1.503e-05,0.0,0 STARLINK-5602,1 55743U 23028C   24160.44703708  .00001503  00000-0  13375-3 0  9996,2 55743  70.0014  56.3861 0002811 274.5222  85.5616 14.98333411 70288,6950.182,96.107,574.001,570.094,0.0
55743.0,STARLINK-5602,PAYLOAD,2024-06-08 17:08:16,14.98332962,0.0002355,70.0023,55.7129,277.819,82.2701,9.7996e-05,1.077e-05,0.0,0 STARLINK-5602,1 55743U 23028C   24160.71407958  .00001077  00000-0  97996-4 0  9992,2 55743  70.0023  55.7129 0002355 277.8190  82.2701 14.98332962 70325,6950.184,96.107,573.685,570.412,0.0
55743.0,STARLINK-5602,PAYLOAD,2024-06-08 21:56:40,14.98331456,0.0002349,70.0025,55.2055,277.7946,82.2946,6.7316e-05,7.1e-06,0.0,0 STARLINK-5602,1 55743U 23028C   24160.91436097  .00000710  00000-0  67316-4 0  9996,2 55743  70.0025  55.2055 0002349 277.7946  82.2946 14.98331456 70352,6950.188,96.107,573.686,570.421,0.0
55743.0,STARLINK-5602,PAYLOAD,2024-06-09 02:45:05,14.98324339,0.0002544,70.0016,54.6992,265.7091,94.3777,8.0663e-05,8.7e-06,0.0,0 STARLINK-5602,1 55743U 23028C   24161.11464160  .00000870  00000-0  80663-4 0  9998,2 55743  70.0016  54.6992 0002544 265.7091  94.3777 14.98324339 70381,6950.21,96.107,573.844,570.307,0.0
55743.0,STARLINK-5602,PAYLOAD,2024-06-09 23:34:49,14.98334011,0.0002853,70.0008,52.5123,268.0427,92.0405,4.2374e-05,4.13e-06,0.0,0 STARLINK-5602,1 55743U 23028C   24161.98251943  .00000413  00000-0  42374-4 0  9996,2 55743  70.0008  52.5123 0002853 268.0427  92.0405 14.98334011 70513,6950.18,96.107,574.028,570.063,0.0
55743.0,STARLINK-5602,PAYLOAD,2024-06-10 02:47:05,14.98334199,0.0002865,70.0008,52.1757,268.3446,91.7385,5.0879e-05,5.14e-06,0.0,0 STARLINK-5602,1 55743U 23028C   24162.11603921  .00000514  00000-0  50879-4 0  9990,2 55743  70.0008  52.1757 0002865 268.3446  91.7385 14.98334199 70531,6950.18,96.107,574.036,570.054,0.0
55743.0,STARLINK-5602,PAYLOAD,2024-06-10 22:00:42,14.98325293,0.000283,70.0008,50.1568,270.294,89.7895,0.00029352,3.411e-05,0.0,0 STARLINK-5602,1 55743U 23028C   24162.91716196  .00003411  00000-0  29352-3 0  9997,2 55743  70.0008  50.1568 0002830 270.2940  89.7895 14.98325293 70653,6950.207,96.107,574.039,570.106,0.0
55743.0,STARLINK-5602,PAYLOAD,2024-06-11 02:49:06,14.98337216,0.0002805,70.0007,49.6516,269.3312,90.7525,0.00020805,2.391e-05,0.0,0 STARLINK-5602,1 55743U 23028C   24163.11743501  .00002391  00000-0  20805-3 0  9990,2 55743  70.0007  49.6516 0002805 269.3312  90.7525 14.98337216 70685,6950.171,96.107,573.985,570.086,0.0
55743.0,STARLINK-5602,PAYLOAD,2024-06-11 09:13:38,14.98344854,0.0002868,70.0007,48.9774,272.3349,87.7482,-7.1082e-05,-9.41e-06,0.0,0 STARLINK-5602,1 55743U 23028C   24163.38447301 -.00000941  00000-0 -71082-4 0  9993,2 55743  70.0007  48.9774 0002868 272.3349  87.7482 14.98344854 70725,6950.147,96.106,574.005,570.019,0.0
55743.0,STARLINK-5602,PAYLOAD,2024-06-12 02:51:07,14.98335545,0.0002695,70.0008,47.1269,269.626,90.459,0.00011168,1.24e-05,0.0,0 STARLINK-5602,1 55743U 23028C   24164.11883611  .00001240  00000-0  11168-3 0  9992,2 55743  70.0008  47.1269 0002695 269.6260  90.4590 14.98335545 70835,6950.176,96.107,573.914,570.168,0.0
55743.0,STARLINK-5602,PAYLOAD,2024-06-12 20:28:36,14.98329102,0.0002673,70.0008,45.2759,262.651,97.4345,-2.1512e-05,-3.5e-06,0.0,0 STARLINK-5602,1 55743U 23028C   24164.85320115 -.00000350  00000-0 -21512-4 0  9996,2 55743  70.0008  45.2759 0002673 262.6510  97.4345 14.98329102 70944,6950.196,96.107,573.918,570.203,0.0
55743.0,STARLINK-5602,PAYLOAD,2024-06-12 22:04:44,14.98328642,0.0002681,70.0008,45.1076,262.6381,97.4473,-2.9602e-05,-4.46e-06,0.0,0 STARLINK-5602,1 55743U 23028C   24164.91996153 -.00000446  00000-0 -29602-4 0  9998,2 55743  70.0008  45.1076 0002681 262.6381  97.4473 14.98328642 70951,6950.197,96.107,573.925,570.199,0.0
55743.0,STARLINK-5602,PAYLOAD,2024-06-13 09:17:40,14.98330671,0.0002683,70.0009,43.9288,266.4502,93.635,8.3398e-06,7e-08,0.0,0 STARLINK-5602,1 55743U 23028C   24165.38727945  .00000007  00000-0  83398-5 0  9995,2 55743  70.0009  43.9288 0002683 266.4502  93.6350 14.98330671 71028,6950.191,96.107,573.921,570.191,0.0
55743.0,STARLINK-5602,PAYLOAD,2024-06-13 22:06:45,14.98331511,0.0002805,70.0005,42.5822,266.0306,94.0533,1.3645e-05,7e-07,0.0,0 STARLINK-5602,1 55743U 23028C   24165.92135803  .00000070  00000-0  13645-4 0  9998,2 55743  70.0005  42.5822 0002805 266.0306  94.0533 14.98331511 71108,6950.188,96.107,574.003,570.104,0.0
55743.0,STARLINK-5602,PAYLOAD,2024-06-14 09:19:41,14.9833333,0.0002815,69.9999,41.4021,266.0702,94.0136,-1.5254e-05,-2.75e-06,0.0,0 STARLINK-5602,1 55743U 23028C   24166.38867679 -.00000275  00000-0 -15254-4 0  9999,2 55743  69.9999  41.4021 0002815 266.0702  94.0136 14.98333330 71174,6950.183,96.107,574.004,570.091,0.0
